{"type": "FeatureCollection", "features": [ {"type": "Feature", "properties": {"norad_id": 30914, "name": "FENGYUN 1C DEB", "group": "fengyun-1c-debris", "lat": -79.37559927590813, "lon": -49.574258420496875, "alt_km": 1004.2828078889015, "timestamp": "2025-12-23T07:45:09.683792+00:00", "meta": {"OBJECT_NAME": "FENGYUN 1C DEB", "OBJECT_ID": "1999-025AZC", "EPOCH": "2025-12-17T21:54:28.395360", "MEAN_MOTION": 13.08857758, "ECCENTRICITY": 0.05168492, "INCLINATION": 99.9831, "RA_OF_ASC_NODE": 235.491, "ARG_OF_PERICENTER": 342.6151, "MEAN_ANOMALY": 15.7825, "EPHEMERIS_TYPE": 0, "CLASSIFICATION_TYPE": "U", "NORAD_CAT_ID": 30914, "ELEMENT_SET_NO": 999, "REV_AT_EPOCH": 59143, "BSTAR": 0.0037805037, "MEAN_MOTION_DOT": 2.449e-05, "MEAN_MOTION_DDOT": 0}, "tle": {"line1": "1 30914U 99025AZC 25351.91282865  .00002449  00000+0  37805-2 0  9992", "line2": "2 30914  99.9831 235.4910 0516849 342.6151  15.7825 13.08857758591439"}}, "geometry": {"type": "Point", "coordinates": [-49.574258420496875, -79.37559927590813]}}, {"type": "Feature", "properties": {"norad_id": 30915, "name": "FENGYUN 1C DEB", "group": "fengyun-1c-debris", "lat": 78.89657103635896, "lon": -52.96416449337705, "alt_km": 772.2043168734835, "timestamp": "2025-12-23T07:45:09.683802+00:00", "meta": {"OBJECT_NAME": "FENGYUN 1C DEB", "OBJECT_ID": "1999-025AZD", "EPOCH": "2025-12-22T16:08:08.881728", "MEAN_MOTION": 14.25107548, "ECCENTRICITY": 0.00533038, "INCLINATION": 98.9412, "RA_OF_ASC_NODE": 73.0333, "ARG_OF_PERICENTER": 140.519, "MEAN_ANOMALY": 219.9892, "EPHEMERIS_TYPE": 0, "CLASSIFICATION_TYPE": "U", "NORAD_CAT_ID": 30915, "ELEMENT_SET_NO": 999, "REV_AT_EPOCH": 96654, "BSTAR": 0.001446305, "MEAN_MOTION_DOT": 3.398e-05, "MEAN_MOTION_DDOT": 0}, "tle": {"line1": "1 30915U 99025AZD 25356.67232502  .00003398  00000+0  14463-2 0  9993", "line2": "2 30915  98.9412  73.0333 0053303 140.5190 219.9892 14.25107548966543"}}, "geometry": {"type": "Point", "coordinates": [-52.96416449337705, 78.89657103635896]}}, {"type": "Feature", "properties": {"norad_id": 30916, "name": "FENGYUN 1C DEB", "group": "fengyun-1c-debris", "lat": -62.639400788854395, "lon": -140.18588125779652, "alt_km": 826.3209099319065, "timestamp": "2025-12-23T07:45:09.683812+00:00", "meta": {"OBJECT_NAME": "FENGYUN 1C DEB", "OBJECT_ID": "1999-025AZE", "EPOCH": "2025-12-22T03:28:07.277088", "MEAN_MOTION": 14.08833427, "ECCENTRICITY": 0.00632293, "INCLINATION": 99.0015, "RA_OF_ASC_NODE": 56.4749, "ARG_OF_PERICENTER": 231.9136, "MEAN_ANOMALY": 158.0725, "EPHEMERIS_TYPE": 0, "CLASSIFICATION_TYPE": "U", "NORAD_CAT_ID": 30916, "ELEMENT_SET_NO": 999, "REV_AT_EPOCH": 95976, "BSTAR": 0.0010202758, "MEAN_MOTION_DOT": 1.749e-05, "MEAN_MOTION_DDOT": 0}, "tle": {"line1": "1 30916U 99025AZE 25356.14452867  .00001749  00000+0  10203-2 0  9990", "line2": "2 30916  99.0015  56.4749 0063229 231.9136 158.0725 14.08833427959761"}}, "geometry": {"type": "Point", "coordinates": [-140.18588125779652, -62.639400788854395]}}, {"type": "Feature", "properties": {"norad_id": 30918, "name": "FENGYUN 1C DEB", "group": "fengyun-1c-debris", "lat": -51.93693435424355, "lon": -82.25490661901408, "alt_km": 994.0800721848027, "timestamp": "2025-12-23T07:45:09.683823+00:00", "meta": {"OBJECT_NAME": "FENGYUN 1C DEB", "OBJECT_ID": "1999-025AZG", "EPOCH": "2025-12-22T20:56:50.077248", "MEAN_MOTION": 13.96852632, "ECCENTRICITY": 0.01572039, "INCLINATION": 98.4168, "RA_OF_ASC_NODE": 108.2317, "ARG_OF_PERICENTER": 97.2434, "MEAN_ANOMALY": 31.3921, "EPHEMERIS_TYPE": 0, "CLASSIFICATION_TYPE": "U", "NORAD_CAT_ID": 30918, "ELEMENT_SET_NO": 999, "REV_AT_EPOCH": 95194, "BSTAR": 0.00074696277, "MEAN_MOTION_DOT": 1.116e-05, "MEAN_MOTION_DDOT": 0}, "tle": {"line1": "1 30918U 99025AZG 25356.87280182  .00001116  00000+0  74696-3 0  9996", "line2": "2 30918  98.4168 108.2317 0157203  97.2434  31.3921 13.96852632951940"}}, "geometry": {"type": "Point", "coordinates": [-82.25490661901408, -51.93693435424355]}}, {"type": "Feature", "properties": {"norad_id": 30920, "name": "FENGYUN 1C DEB", "group": "fengyun-1c-debris", "lat": 6.727602867258534, "lon": -40.29695862099832, "alt_km": 858.0546165584819, "timestamp": "2025-12-23T07:45:09.683834+00:00", "meta": {"OBJECT_NAME": "FENGYUN 1C DEB", "OBJECT_ID": "1999-025AZJ", "EPOCH": "2025-12-20T02:40:31.010592", "MEAN_MOTION": 14.16716763, "ECCENTRICITY": 0.01085324, "INCLINATION": 98.9177, "RA_OF_ASC_NODE": 135.4232, "ARG_OF_PERICENTER": 77.0528, "MEAN_ANOMALY": 284.2741, "EPHEMERIS_TYPE": 0, "CLASSIFICATION_TYPE": "U", "NORAD_CAT_ID": 30920, "ELEMENT_SET_NO": 999, "REV_AT_EPOCH": 95198, "BSTAR": 0.0020678221, "MEAN_MOTION_DOT": 4.337e-05, "MEAN_MOTION_DDOT": 0}, "tle": {"line1": "1 30920U 99025AZJ 25354.11147003  .00004337  00000+0  20678-2 0  9996", "line2": "2 30920  98.9177 135.4232 0108532  77.0528 284.2741 14.16716763951987"}}, "geometry": {"type": "Point", "coordinates": [-40.29695862099832, 6.727602867258534]}}, {"type": "Feature", "properties": {"norad_id": 30921, "name": "FENGYUN 1C DEB", "group": "fengyun-1c-debris", "lat": -48.84116429800346, "lon": 95.2747488124287, "alt_km": 782.1247948315659, "timestamp": "2025-12-23T07:45:09.683843+00:00", "meta": {"OBJECT_NAME": "FENGYUN 1C DEB", "OBJECT_ID": "1999-025AZK", "EPOCH": "2025-12-22T17:30:11.850912", "MEAN_MOTION": 14.32817371, "ECCENTRICITY": 0.00163862, "INCLINATION": 98.8428, "RA_OF_ASC_NODE": 84.411, "ARG_OF_PERICENTER": 5.5949, "MEAN_ANOMALY": 124.2174, "EPHEMERIS_TYPE": 0, "CLASSIFICATION_TYPE": "U", "NORAD_CAT_ID": 30921, "ELEMENT_SET_NO": 999, "REV_AT_EPOCH": 96967, "BSTAR": 0.001691226, "MEAN_MOTION_DOT": 4.575e-05, "MEAN_MOTION_DDOT": 0}, "tle": {"line1": "1 30921U 99025AZK 25356.72930383  .00004575  00000+0  16912-2 0  9997", "line2": "2 30921  98.8428  84.4110 0016386   5.5949 124.2174 14.32817371969675"}}, "geometry": {"type": "Point", "coordinates": [95.2747488124287, -48.84116429800346]}}, {"type": "Feature", "properties": {"norad_id": 30922, "name": "FENGYUN 1C DEB", "group": "fengyun-1c-debris", "lat": 32.99789879522491, "lon": 7.2081706479731675, "alt_km": 821.6859375487138, "timestamp": "2025-12-23T07:45:09.683854+00:00", "meta": {"OBJECT_NAME": "FENGYUN 1C DEB", "OBJECT_ID": "1999-025AZL", "EPOCH": "2025-12-22T07:57:12.138336", "MEAN_MOTION": 14.1748272, "ECCENTRICITY": 0.00142117, "INCLINATION": 98.6395, "RA_OF_ASC_NODE": 11.91, "ARG_OF_PERICENTER": 27.1862, "MEAN_ANOMALY": 348.885, "EPHEMERIS_TYPE": 0, "CLASSIFICATION_TYPE": "U", "NORAD_CAT_ID": 30922, "ELEMENT_SET_NO": 999, "REV_AT_EPOCH": 96700, "BSTAR": 0.00056983552, "MEAN_MOTION_DOT": 1.114e-05, "MEAN_MOTION_DDOT": 0}, "tle": {"line1": "1 30922U 99025AZL 25356.33139049  .00001114  00000+0  56984-3 0  9995", "line2": "2 30922  98.6395  11.9100 0014211  27.1862 348.8850 14.17482720967009"}}, "geometry": {"type": "Point", "coordinates": [7.2081706479731675, 32.99789879522491]}}, {"type": "Feature", "properties": {"norad_id": 30925, "name": "FENGYUN 1C DEB", "group": "fengyun-1c-debris", "lat": 57.60438221652938, "lon": 115.28485615913121, "alt_km": 762.2175650636054, "timestamp": "2025-12-23T07:45:09.683864+00:00", "meta": {"OBJECT_NAME": "FENGYUN 1C DEB", "OBJECT_ID": "1999-025AZP", "EPOCH": "2025-12-22T20:32:10.862592", "MEAN_MOTION": 14.43273583, "ECCENTRICITY": 0.00333507, "INCLINATION": 98.8822, "RA_OF_ASC_NODE": 129.0657, "ARG_OF_PERICENTER": 208.088, "MEAN_ANOMALY": 304.038, "EPHEMERIS_TYPE": 0, "CLASSIFICATION_TYPE": "U", "NORAD_CAT_ID": 30925, "ELEMENT_SET_NO": 999, "REV_AT_EPOCH": 97218, "BSTAR": 0.0025124949, "MEAN_MOTION_DOT": 8.479e-05, "MEAN_MOTION_DDOT": 0}, "tle": {"line1": "1 30925U 99025AZP 25356.85568128  .00008479  00000+0  25125-2 0  9992", "line2": "2 30925  98.8822 129.0657 0033350 208.0880 304.0380 14.43273583972183"}}, "geometry": {"type": "Point", "coordinates": [115.28485615913121, 57.60438221652938]}}, {"type": "Feature", "properties": {"norad_id": 30926, "name": "FENGYUN 1C DEB", "group": "fengyun-1c-debris", "lat": 14.296828880233816, "lon": 121.513464317612, "alt_km": 715.3625830708434, "timestamp": "2025-12-23T07:45:09.683874+00:00", "meta": {"OBJECT_NAME": "FENGYUN 1C DEB", "OBJECT_ID": "1999-025AZQ", "EPOCH": "2025-12-22T19:43:31.671840", "MEAN_MOTION": 14.89487229, "ECCENTRICITY": 0.01647754, "INCLINATION": 98.8045, "RA_OF_ASC_NODE": 298.6923, "ARG_OF_PERICENTER": 349.4646, "MEAN_ANOMALY": 10.3131, "EPHEMERIS_TYPE": 0, "CLASSIFICATION_TYPE": "U", "NORAD_CAT_ID": 30926, "ELEMENT_SET_NO": 999, "REV_AT_EPOCH": 917, "BSTAR": 0.00058701791, "MEAN_MOTION_DOT": 7.143e-05, "MEAN_MOTION_DDOT": 0}, "tle": {"line1": "1 30926U 99025AZQ 25356.82189435  .00007143  00000+0  58702-3 0  9995", "line2": "2 30926  98.8045 298.6923 0164775 349.4646  10.3131 14.89487229  9171"}}, "geometry": {"type": "Point", "coordinates": [121.513464317612, 14.296828880233816]}}, {"type": "Feature", "properties": {"norad_id": 30927, "name": "FENGYUN 1C DEB", "group": "fengyun-1c-debris", "lat": -2.8347479451224498, "lon": -122.4661567033656, "alt_km": 929.3269806164435, "timestamp": "2025-12-23T07:45:09.683885+00:00", "meta": {"OBJECT_NAME": "FENGYUN 1C DEB", "OBJECT_ID": "1999-025AZR", "EPOCH": "2025-12-22T10:25:58.555200", "MEAN_MOTION": 14.09031163, "ECCENTRICITY": 0.00982908, "INCLINATION": 99.1819, "RA_OF_ASC_NODE": 57.0879, "ARG_OF_PERICENTER": 338.4603, "MEAN_ANOMALY": 21.2444, "EPHEMERIS_TYPE": 0, "CLASSIFICATION_TYPE": "U", "NORAD_CAT_ID": 30927, "ELEMENT_SET_NO": 999, "REV_AT_EPOCH": 95820, "BSTAR": 0.001534295, "MEAN_MOTION_DOT": 2.734e-05, "MEAN_MOTION_DDOT": 0}, "tle": {"line1": "1 30927U 99025AZR 25356.43470550  .00002734  00000+0  15343-2 0  9998", "line2": "2 30927  99.1819  57.0879 0098290 338.4603  21.2444 14.09031163958200"}}, "geometry": {"type": "Point", "coordinates": [-122.4661567033656, -2.8347479451224498]}}]}